{"type": "FeatureCollection", "features": [{"type": "Feature", "properties": {"norad_id": 66422, "name": "STARLINK-35617", "group": "last-30-days", "lat": 41.8666981277589, "lon": 127.66469395940005, "alt_km": 437.5467676083663, "timestamp": "2025-12-11T18:59:44.808872+00:00", "meta": {"OBJECT_NAME": "STARLINK-35617", "OBJECT_ID": "2025-259A", "EPOCH": "2025-12-11T06:12:42.415200", "MEAN_MOTION": 15.40758187, "ECCENTRICITY": 0.00015533, "INCLINATION": 43.0017, "RA_OF_ASC_NODE": 56.6478, "ARG_OF_PERICENTER": 312.1593, "MEAN_ANOMALY": 47.9132, "EPHEMERIS_TYPE": 0, "CLASSIFICATION_TYPE": "U", "NORAD_CAT_ID": 66422, "ELEMENT_SET_NO": 999, "REV_AT_EPOCH": 593, "BSTAR": 0.0018519015, "MEAN_MOTION_DOT": 0.00078001, "MEAN_MOTION_DDOT": 0}, "tle": {"line1": "1 66422U 25259A   25345.25882425  .00078001  00000+0  18519-2 0  9999", "line2": "2 66422  43.0017  56.6478 0001553 312.1593  47.9132 15.40758187  5930"}}, "geometry": {"type": "Point", "coordinates": [127.66469395940005, 41.8666981277589]}}, {"type": "Feature", "properties": {"norad_id": 66423, "name": "STARLINK-35618", "group": "last-30-days", "lat": 42.97564813352471, "lon": 144.47830036159704, "alt_km": 437.27792216061334, "timestamp": "2025-12-11T18:59:44.808950+00:00", "meta": {"OBJECT_NAME": "STARLINK-35618", "OBJECT_ID": "2025-259B", "EPOCH": "2025-12-11T06:09:28.709856", "MEAN_MOTION": 15.40759138, "ECCENTRICITY": 7.604e-05, "INCLINATION": 42.9997, "RA_OF_ASC_NODE": 56.6302, "ARG_OF_PERICENTER": 289.5736, "MEAN_ANOMALY": 70.5038, "EPHEMERIS_TYPE": 0, "CLASSIFICATION_TYPE": "U", "NORAD_CAT_ID": 66423, "ELEMENT_SET_NO": 999, "REV_AT_EPOCH": 593, "BSTAR": 0.0018297901, "MEAN_MOTION_DOT": 0.00077058, "MEAN_MOTION_DDOT": 0}, "tle": {"line1": "1 66423U 25259B   25345.25658229  .00077058  00000+0  18298-2 0  9998", "line2": "2 66423  42.9997  56.6302 0000760 289.5736  70.5038 15.40759138  5931"}}, "geometry": {"type": "Point", "coordinates": [144.47830036159704, 42.97564813352471]}}, {"type": "Feature", "properties": {"norad_id": 66424, "name": "STARLINK-35588", "group": "last-30-days", "lat": 41.61237820673978, "lon": 161.132009619758, "alt_km": 438.05679445196256, "timestamp": "2025-12-11T18:59:44.808969+00:00", "meta": {"OBJECT_NAME": "STARLINK-35588", "OBJECT_ID": "2025-259C", "EPOCH": "2025-12-11T06:06:15.122880", "MEAN_MOTION": 15.40734762, "ECCENTRICITY": 0.00016472, "INCLINATION": 43.0027, "RA_OF_ASC_NODE": 56.61, "ARG_OF_PERICENTER": 252.0046, "MEAN_ANOMALY": 108.0631, "EPHEMERIS_TYPE": 0, "CLASSIFICATION_TYPE": "U", "NORAD_CAT_ID": 66424, "ELEMENT_SET_NO": 999, "REV_AT_EPOCH": 593, "BSTAR": 0.0019803335, "MEAN_MOTION_DOT": 0.00083426, "MEAN_MOTION_DDOT": 0}, "tle": {"line1": "1 66424U 25259C   25345.25434170  .00083426  00000+0  19803-2 0  9995", "line2": "2 66424  43.0027  56.6100 0001647 252.0046 108.0631 15.40734762  5930"}}, "geometry": {"type": "Point", "coordinates": [161.132009619758, 41.61237820673978]}}, {"type": "Feature", "properties": {"norad_id": 66425, "name": "STARLINK-35555", "group": "last-30-days", "lat": 37.94236713487164, "lon": 176.68911012692828, "alt_km": 438.2066082078645, "timestamp": "2025-12-11T18:59:44.808982+00:00", "meta": {"OBJECT_NAME": "STARLINK-35555", "OBJECT_ID": "2025-259D", "EPOCH": "2025-12-11T06:03:01.631808", "MEAN_MOTION": 15.40751548, "ECCENTRICITY": 9.448e-05, "INCLINATION": 42.9989, "RA_OF_ASC_NODE": 56.5936, "ARG_OF_PERICENTER": 289.1801, "MEAN_ANOMALY": 70.8954, "EPHEMERIS_TYPE": 0, "CLASSIFICATION_TYPE": "U", "NORAD_CAT_ID": 66425, "ELEMENT_SET_NO": 999, "REV_AT_EPOCH": 593, "BSTAR": 0.0020925021, "MEAN_MOTION_DOT": 0.00088273, "MEAN_MOTION_DDOT": 0}, "tle": {"line1": "1 66425U 25259D   25345.25210222  .00088273  00000+0  20925-2 0  9998", "line2": "2 66425  42.9989  56.5936 0000944 289.1801  70.8954 15.40751548  5936"}}, "geometry": {"type": "Point", "coordinates": [176.68911012692828, 37.94236713487164]}}, {"type": "Feature", "properties": {"norad_id": 66426, "name": "STARLINK-35589", "group": "last-30-days", "lat": 32.46179696280583, "lon": -169.59953038743535, "alt_km": 439.06255714025156, "timestamp": "2025-12-11T18:59:44.808994+00:00", "meta": {"OBJECT_NAME": "STARLINK-35589", "OBJECT_ID": "2025-259E", "EPOCH": "2025-12-11T05:59:47.726016", "MEAN_MOTION": 15.40759606, "ECCENTRICITY": 0.00012833, "INCLINATION": 42.9978, "RA_OF_ASC_NODE": 56.5785, "ARG_OF_PERICENTER": 260.5179, "MEAN_ANOMALY": 99.5533, "EPHEMERIS_TYPE": 0, "CLASSIFICATION_TYPE": "U", "NORAD_CAT_ID": 66426, "ELEMENT_SET_NO": 999, "REV_AT_EPOCH": 593, "BSTAR": 0.001965248, "MEAN_MOTION_DOT": 0.0008285, "MEAN_MOTION_DDOT": 0}, "tle": {"line1": "1 66426U 25259E   25345.24985794  .00082850  00000+0  19652-2 0  9991", "line2": "2 66426  42.9978  56.5785 0001283 260.5179  99.5533 15.40759606  5939"}}, "geometry": {"type": "Point", "coordinates": [-169.59953038743535, 32.46179696280583]}}, {"type": "Feature", "properties": {"norad_id": 66427, "name": "STARLINK-35611", "group": "last-30-days", "lat": 25.80376723468343, "lon": -157.83371641705938, "alt_km": 440.05679044274257, "timestamp": "2025-12-11T18:59:44.809006+00:00", "meta": {"OBJECT_NAME": "STARLINK-35611", "OBJECT_ID": "2025-259F", "EPOCH": "2025-12-11T05:56:35.871360", "MEAN_MOTION": 15.40713397, "ECCENTRICITY": 0.00012295, "INCLINATION": 42.9982, "RA_OF_ASC_NODE": 56.5593, "ARG_OF_PERICENTER": 256.6421, "MEAN_ANOMALY": 103.4299, "EPHEMERIS_TYPE": 0, "CLASSIFICATION_TYPE": "U", "NORAD_CAT_ID": 66427, "ELEMENT_SET_NO": 999, "REV_AT_EPOCH": 593, "BSTAR": 0.002026372, "MEAN_MOTION_DOT": 0.00085333, "MEAN_MOTION_DDOT": 0}, "tle": {"line1": "1 66427U 25259F   25345.24763740  .00085333  00000+0  20264-2 0  9997", "line2": "2 66427  42.9982  56.5593 0001229 256.6421 103.4299 15.40713397  5939"}}, "geometry": {"type": "Point", "coordinates": [-157.83371641705938, 25.80376723468343]}}, {"type": "Feature", "properties": {"norad_id": 66428, "name": "STARLINK-35610", "group": "last-30-days", "lat": 18.044033557223795, "lon": -147.07030215377645, "alt_km": 441.03141197191053, "timestamp": "2025-12-11T18:59:44.809017+00:00", "meta": {"OBJECT_NAME": "STARLINK-35610", "OBJECT_ID": "2025-259G", "EPOCH": "2025-12-11T05:53:20.777568", "MEAN_MOTION": 15.40759282, "ECCENTRICITY": 9.377e-05, "INCLINATION": 42.9964, "RA_OF_ASC_NODE": 56.5433, "ARG_OF_PERICENTER": 269.0962, "MEAN_ANOMALY": 90.9787, "EPHEMERIS_TYPE": 0, "CLASSIFICATION_TYPE": "U", "NORAD_CAT_ID": 66428, "ELEMENT_SET_NO": 999, "REV_AT_EPOCH": 593, "BSTAR": 0.0022253133, "MEAN_MOTION_DOT": 0.00093991, "MEAN_MOTION_DDOT": 0}, "tle": {"line1": "1 66428U 25259G   25345.24537937  .00093991  00000+0  22253-2 0  9994", "line2": "2 66428  42.9964  56.5433 0000937 269.0962  90.9787 15.40759282  5931"}}, "geometry": {"type": "Point", "coordinates": [-147.07030215377645, 18.044033557223795]}}, {"type": "Feature", "properties": {"norad_id": 66429, "name": "STARLINK-35533", "group": "last-30-days", "lat": 9.87814600410261, "lon": -137.40874035831823, "alt_km": 442.2865392788999, "timestamp": "2025-12-11T18:59:44.809028+00:00", "meta": {"OBJECT_NAME": "STARLINK-35533", "OBJECT_ID": "2025-259H", "EPOCH": "2025-12-11T05:50:07.256256", "MEAN_MOTION": 15.40762223, "ECCENTRICITY": 4.741e-05, "INCLINATION": 42.9965, "RA_OF_ASC_NODE": 56.5241, "ARG_OF_PERICENTER": 314.1896, "MEAN_ANOMALY": 45.8921, "EPHEMERIS_TYPE": 0, "CLASSIFICATION_TYPE": "U", "NORAD_CAT_ID": 66429, "ELEMENT_SET_NO": 999, "REV_AT_EPOCH": 593, "BSTAR": 0.0018530133, "MEAN_MOTION_DOT": 0.00078058, "MEAN_MOTION_DDOT": 0}, "tle": {"line1": "1 66429U 25259H   25345.24313954  .00078058  00000+0  18530-2 0  9996", "line2": "2 66429  42.9965  56.5241 0000474 314.1896  45.8921 15.40762223  5932"}}, "geometry": {"type": "Point", "coordinates": [-137.40874035831823, 9.87814600410261]}}, {"type": "Feature", "properties": {"norad_id": 66430, "name": "STARLINK-35470", "group": "last-30-days", "lat": 1.7389582703461, "lon": -128.5355688459943, "alt_km": 444.29850070320026, "timestamp": "2025-12-11T18:59:44.809040+00:00", "meta": {"OBJECT_NAME": "STARLINK-35470", "OBJECT_ID": "2025-259J", "EPOCH": "2025-12-11T00:00:02.999808", "MEAN_MOTION": 15.40730999, "ECCENTRICITY": 0.00011998, "INCLINATION": 43.0006, "RA_OF_ASC_NODE": 57.8929, "ARG_OF_PERICENTER": 281.4628, "MEAN_ANOMALY": 181.0376, "EPHEMERIS_TYPE": 0, "CLASSIFICATION_TYPE": "U", "NORAD_CAT_ID": 66430, "ELEMENT_SET_NO": 999, "REV_AT_EPOCH": 600, "BSTAR": -0.0027136355, "MEAN_MOTION_DOT": -0.00112122, "MEAN_MOTION_DDOT": 0}, "tle": {"line1": "1 66430U 25259J   25345.00003472 -.00112122  00000+0 -27136-2 0  9998", "line2": "2 66430  43.0006  57.8929 0001199 281.4628 181.0376 15.40730999  6004"}}, "geometry": {"type": "Point", "coordinates": [-128.5355688459943, 1.7389582703461]}}, {"type": "Feature", "properties": {"norad_id": 66431, "name": "STARLINK-35439", "group": "last-30-days", "lat": -7.037753677397257, "lon": -119.08599480955804, "alt_km": 444.64861875716633, "timestamp": "2025-12-11T18:59:44.809051+00:00", "meta": {"OBJECT_NAME": "STARLINK-35439", "OBJECT_ID": "2025-259K", "EPOCH": "2025-12-11T05:43:40.113408", "MEAN_MOTION": 15.40778298, "ECCENTRICITY": 0.0001307, "INCLINATION": 42.9989, "RA_OF_ASC_NODE": 56.4879, "ARG_OF_PERICENTER": 313.6819, "MEAN_ANOMALY": 46.3929, "EPHEMERIS_TYPE": 0, "CLASSIFICATION_TYPE": "U", "NORAD_CAT_ID": 66431, "ELEMENT_SET_NO": 999, "REV_AT_EPOCH": 593, "BSTAR": 0.0023977894, "MEAN_MOTION_DOT": 0.00101463, "MEAN_MOTION_DDOT": 0}, "tle": {"line1": "1 66431U 25259K   25345.23865872  .00101463  00000+0  23978-2 0  9998", "line2": "2 66431  42.9989  56.4879 0001307 313.6819  46.3929 15.40778298  5935"}}, "geometry": {"type": "Point", "coordinates": [-119.08599480955804, -7.037753677397257]}}]}